satname,norad_id,inclination_deg,eccentricity,mean_motion_rev_per_day,perigee_km,apogee_km,l1,l2
STARLINK-1230,45189,53.1553,0.0003085,15.32623052,465.8777762067639,470.10183644626886,1 45189U 20012M   26129.92571554  .00028740  00000+0  90775-3 0  9991,2 45189  53.1553 115.0146 0003085  68.4942 291.6389 15.32623052341542
STARLINK-1234,45190,53.0415,0.0008194,15.70699842,351.37700336652415,362.4143749375062,1 45190U 20012N   26129.94253494  .00045925  00000+0  36583-3 0  9996,2 45190  53.0415  23.7376 0008194 126.9304 233.2464 15.70699842345483
STARLINK-1269,45197,53.1543,0.0003033,15.32555365,466.1148912776953,470.267874074626,1 45197U 20012V   26129.98677994  .00028290  00000+0  89566-3 0  9997,2 45197  53.1543 114.5793 0003033  49.0653 311.0611 15.32555365344302
STARLINK-1154,45198,53.0415,0.0003481,15.55796351,397.47930942295807,402.19813612115286,1 45198U 20012W   26129.25588650  .00060107  00000+0  85548-3 0  9997,2 45198  53.0415  78.9015 0003481  19.0610 341.0530 15.55796351344699
STARLINK-1199,45201,53.1566,0.0002875,15.32630349,465.9998210558779,469.93633147473065,1 45201U 20012Z   26129.91668981  .00045135  00000+0  14156-2 0  9991,2 45201  53.1566  99.1692 0002875  86.6027  48.3003 15.32630349  5309
STARLINK-1209,45206,53.0395,0.0010947,15.61663443,375.45047528525447,390.25298400994416,1 45206U 20012AE  26129.92740988  .00060360  00000+0  68684-3 0  9998,2 45206  53.0395  36.6299 0010947 112.7635 247.4536 15.61663443344455
STARLINK-1231,45212,53.0398,0.0004197,15.26017306,484.8507513376344,490.61396207565303,1 45212U 20012AL  26129.28893091  .00036069  00000+0  13899-2 0  9994,2 45212  53.0398  96.3386 0004197  11.8009 348.3086 15.26017306344463
STARLINK-1271,45217,53.1548,0.0009974,15.32681434,460.98779932304296,474.6441062732847,1 45217U 20012AR  26129.95746232  .00024822  00000+0  78360-3 0  9996,2 45217  53.1548  99.1255 0009974 115.7429 244.4604 15.32681434344547
STARLINK-1191,45222,53.1559,0.000507,15.36345998,453.4600533766934,460.3908066807435,1 45222U 20012AW  26129.22896399  .00040488  00000+0  11303-2 0  9991,2 45222  53.1559  76.3386 0005070  85.9710 274.1873 15.36345998344804
STARLINK-1212,45223,53.0413,0.0004707,15.64237497,372.2536924913111,378.61150291058675,1 45223U 20012AX  26129.97686802  .00066993  00000+0  68984-3 0  9997,2 45223  53.0413  52.3489 0004707  65.4162 294.7342 15.64237497345198
STARLINK-1215,45225,53.1572,0.0002269,15.32780403,465.96798214527735,469.0745418645747,1 45225U 20012AZ  26129.17674353  .00249774  00000+0  75360-2 0  9994,2 45225  53.1572  77.0615 0002269  92.9983 267.1279 15.32780403344747
STARLINK-1221,45227,53.0663,0.0002856,15.43969002,432.4634781547811,436.3548045107109,1 45227U 20012BB  26129.86153155  .00011627  00000+0  26007-3 0  9993,2 45227  53.0663 339.2637 0002856 167.5149 192.5928 15.43969002346156
STARLINK-1222,45228,53.0537,0.0001045,15.53312491,406.35339686588213,407.77150355097456,1 45228U 20012BC  26129.94898635  .00023874  00000+0  37822-3 0  9996,2 45228  53.0537  48.2646 0001045  53.0188 307.0917 15.53312491345138
STARLINK-1226,45229,53.1571,0.000341,15.4106415,440.641398206777,445.2933914040341,1 45229U 20012BD  26129.56384593  .00029818  00000+0  71754-3 0  9994,2 45229  53.1571  73.0762 0003410  94.8636 265.2759 15.41064150344773
STARLINK-1227,45230,53.1553,0.0004294,15.41162201,439.74922129741844,445.6069372875145,1 45230U 20012BE  26129.25171910  .00043351  00000+0  10335-2 0  9994,2 45230  53.1553  74.6879 0004294  94.8220 265.3276 15.41162201344840
STARLINK-1246,45235,53.1559,0.0003257,15.32758383,465.35717391918024,469.8164784195469,1 45235U 20012BK  26129.66908141  .00022747  00000+0  71841-3 0  9994,2 45235  53.1559 115.7088 0003257  80.1567 279.9802 15.32758383344310
STARLINK-1270,45237,53.0424,0.0004547,15.57280801,392.450728910645,398.61070233123064,1 45237U 20012BM  26129.94403817  .00060863  00000+0  81958-3 0  9998,2 45237  53.0424  52.6243 0004547  87.2376 272.9155 15.57280801345185
STARLINK-1279,45360,53.0363,0.0009154,15.70721853,350.66757764627255,362.99796029930803,1 45360U 20019A   26129.47607922  .00057420  00000+0  45496-3 0  9995,2 45360  53.0363 160.8531 0009154  12.9924 347.1327 15.70721853340182
STARLINK-1301,45361,53.0385,0.0006336,15.72928295,346.2696429876951,354.796213520779,1 45361U 20019B   26129.81402280  .00063697  00000+0  45960-3 0  9993,2 45361  53.0385 162.2965 0006336  34.0706 326.0718 15.72928295340200
STARLINK-1262,45366,53.1559,0.0002937,15.31877518,468.199514636407,472.22223417783425,1 45366U 20019G   26129.62078391  .00064398  00000+0  20576-2 0  9993,2 45366  53.1559 242.1821 0002937 353.4312   6.6651 15.31877518339089
STARLINK-1273,45367,53.0456,0.0005109,15.53396299,403.35196668372373,410.2848341118506,1 45367U 20019H   26129.96439095  .00063588  00000+0  98679-3 0  9993,2 45367  53.0456 221.2859 0005109 315.9185  44.1417 15.53396299339396
STARLINK-1277,45369,53.0443,0.0006395,15.59397771,385.0710657624322,393.7267441848926,1 45369U 20019K   26129.52437662  .00059822  00000+0  74382-3 0  9996,2 45369  53.0443 218.8188 0006395 308.1643  51.8792 15.59397771339395
STARLINK-1281,45370,53.1579,0.0003216,15.32735187,465.4542865565163,469.8575005456487,1 45370U 20019L   26129.58473670  .00033102  00000+0  10395-2 0  9999,2 45370  53.1579 242.1619 0003216 342.1701  17.9187 15.32735187339084
STARLINK-1300,45374,53.1579,0.0003132,15.32972507,464.8054612458782,469.0932233306876,1 45374U 20019Q   26129.60428484  .00030602  00000+0  95507-3 0  9990,2 45374  53.1579 242.0548 0003132 355.7628   4.3347 15.32972507339080
STARLINK-1302,45375,53.0461,0.0004131,15.64649434,371.4577604756014,377.03658027716665,1 45375U 20019R   26129.53465707  .00034384  00000+0  35248-3 0  9999,2 45375  53.0461 215.7344 0004131 335.9693  24.1128 15.64649434339434
STARLINK-1304,45376,53.0439,0.0005325,15.58747402,387.6765086700116,394.88593907843915,1 45376U 20019S   26129.95354720  .00062376  00000+0  79457-3 0  9990,2 45376  53.0439 213.9348 0005325 329.0061  31.0636 15.58747402339497
STARLINK-1305,45377,53.0379,0.0009951,15.64947504,366.6712971218294,380.10818564252713,1 45377U 20019T   26129.47636707  .00037790  00000+0  38141-3 0  9993,2 45377  53.0379 196.4786 0009951 340.0823  19.9802 15.64947504339706
STARLINK-1319,45379,53.041,0.0004758,15.73070639,346.9257049042526,353.3283209389492,1 45379U 20019V   26129.88194227  .00048960  00000+0  35293-3 0  9992,2 45379  53.0410 187.5460 0004758   1.6371 358.4661 15.73070639339869
STARLINK-1266,45383,53.0447,0.0005028,15.55143824,398.32566354172286,405.1435024055618,1 45383U 20019Z   26129.90044951  .00050840  00000+0  74291-3 0  9999,2 45383  53.0447 199.0791 0005028 323.4333  36.6333 15.55143824339692
STARLINK-1267,45384,53.0446,0.0007216,15.60935966,380.07196859976466,389.83245895308755,1 45384U 20019AA  26129.47155594  .00068206  00000+0  79787-3 0  9998,2 45384  53.0446 192.9829 0007216   5.0155 355.0928 15.60935966339748
STARLINK-1272,45386,53.0401,0.000831,15.66617018,362.9857078232426,374.1987718198261,1 45386U 20019AC  26129.83780426  .00034924  00000+0  33053-3 0  9994,2 45386  53.0401 171.0038 0008310   1.0414 359.0617 15.66617018340080
STARLINK-1274,45387,53.0236,0.0009518,15.56996334,389.9077719769957,402.80369634574527,1 45387U 20019AD  26129.82809643  .00044506  00000+0  60786-3 0  9997,2 45387  53.0236 168.4490 0009518  23.1751 336.9687 15.56996334340114
STARLINK-1280,45388,53.0374,0.0005711,15.73731648,344.40141267416766,352.08428373678817,1 45388U 20019AE  26129.84181126  .00051610  00000+0  36124-3 0  9992,2 45388  53.0374 180.2715 0005711   7.6586 352.4518 15.73731648339943
STARLINK-1283,45389,53.0396,0.0004179,15.6785583,362.2199307978972,367.85587638231664,1 45389U 20019AF  26129.81536654  .00035282  00000+0  31795-3 0  9996,2 45389  53.0396 170.4728 0004179  28.4319 331.6924 15.67855830340096
STARLINK-1284,45390,53.0407,0.000437,15.66946342,364.6989956114976,370.59481074287396,1 45390U 20019AG  26129.87713636  .00034414  00000+0  32189-3 0  9995,2 45390  53.0407 193.8249 0004370 310.8249  49.2387 15.66946342339766
STARLINK-1297,45395,53.0415,0.0006165,15.65413357,367.88872191346854,376.21170274627184,1 45395U 20019AM  26129.86236762  .00033355  00000+0  33179-3 0  9992,2 45395  53.0415 192.5898 0006165 321.8382  38.2195 15.65413357338960
STARLINK-1307,45397,53.0526,0.0001768,15.54762616,401.64388593508465,404.04164037933606,1 45397U 20019AP  26129.45281503  .00027183  00000+0  40746-3 0  9992,2 45397  53.0526 198.1010 0001768  21.2487 338.8596 15.54762616339490
STARLINK-1255,45399,53.0349,0.0006417,15.61788744,378.15181143103837,386.8284002586797,1 45399U 20019AR  26129.39341630  .00052013  00000+0  59150-3 0  9994,2 45399  53.0349 168.0996 0006417  10.6019 349.5128 15.61788744339895
STARLINK-1260,45404,53.1565,0.0004989,15.35302833,456.6095882349182,463.432702432332,1 45404U 20019AW  26129.93927208  .00031020  00000+0  89904-3 0  9997,2 45404  53.1565 203.7743 0004989 349.9888  10.1015 15.35302833339364
STARLINK-1263,45405,53.1587,0.0003627,15.32813811,464.93890909307265,469.9046774417084,1 45405U 20019AX  26129.92549924  .00024799  00000+0  78058-3 0  9995,2 45405  53.1587 204.5560 0003627  15.7811 344.3304 15.32813811339359
STARLINK-1265,45406,53.1567,0.0004926,15.35588209,455.8058507393289,462.5419694479533,1 45406U 20019AY  26129.93849868  .00029542  00000+0  84913-3 0  9995,2 45406  53.1567 203.8407 0004926 343.5157  16.5685 15.35588209339362
STARLINK-1278,45408,53.0398,0.0006431,15.66103259,365.72789505251785,374.4074358932485,1 45408U 20019BA  26129.45799811  .00039131  00000+0  37745-3 0  9992,2 45408  53.0398 193.6987 0006431 345.4554  14.6275 15.66103259339455
STARLINK-1296,45412,53.157,0.0005409,15.35822697,454.7800244533728,462.17587450571955,1 45412U 20019BE  26129.91715930  .00034630  00000+0  98539-3 0  9995,2 45412  53.1570 203.6776 0005409 340.7067  19.3731 15.35822697339361
